[{"OBJECT_NAME":"STARLINK-32299","OBJECT_ID":"2024-195R","EPOCH":"2026-03-09T13:21:36.700992","MEAN_MOTION":15.30187677,"ECCENTRICITY":0.000116,"INCLINATION":53.1605,"RA_OF_ASC_NODE":155.791,"ARG_OF_PERICENTER":111.9829,"MEAN_ANOMALY":248.1295,"EPHEMERIS_TYPE":0,"CLASSIFICATION_TYPE":"U","NORAD_CAT_ID":61702,"ELEMENT_SET_NO":999,"REV_AT_EPOCH":7723,"BSTAR":3.7123e-6,"MEAN_MOTION_DOT":-2.49e-6,"MEAN_MOTION_DDOT":0},{"OBJECT_NAME":"OBJECT M","OBJECT_ID":"2025-155M","EPOCH":"2026-03-09T22:37:12.666144","MEAN_MOTION":15.33288683,"ECCENTRICITY":0.00088001,"INCLINATION":97.4429,"RA_OF_ASC_NODE":38.1052,"ARG_OF_PERICENTER":139.1253,"MEAN_ANOMALY":221.0651,"EPHEMERIS_TYPE":0,"CLASSIFICATION_TYPE":"U","NORAD_CAT_ID":64887,"ELEMENT_SET_NO":999,"REV_AT_EPOCH":6565,"BSTAR":0.00087834095,"MEAN_MOTION_DOT":0.00028279,"MEAN_MOTION_DDOT":0}]
